{"fetched_at":"2026-04-01T13:19:51Z","count":4527,"tles":[{"name":"STARLINK-37204","line1":"1 68329U 26059J   26090.66668981 -.00006942  00000+0 -31674-4 0  9994","line2":"2 68329  53.1595 252.6905 0000972  78.9071 159.6373 15.80863839  2576","category":"Starlink"}]}